     3.02           N: GNSS NAV DATA    C: BDS              RINEX VERSION / TYPE
UnicoreConvert      Unicore             20250714 021217 UTC PGM / RUN BY / DATE 
     4                                                      LEAP SECONDS        
                                                            END OF HEADER       
C40 2025 05 28 09 00 00 -.143285000000D-03 -.255440000000D-11  .000000000000D+00
      .100000000000D+01  .103718750000D+04  .587881630500D-09  .570547055200D+00
      .339411199100D-04  .449153722730D-02  .886898487800D-05  .649391979624D+04
      .291600000000D+06  .180210918200D-06  .736250090500D+00 -.298023223900D-07
      .968420877500D+00 -.394843750000D+02 -.313529788970D+01 -.171292849000D-08
      .542879756000D-10 -.394843750000D+02  .101200000000D+04 -.171292849000D-08
      .200000000000D+01  .000000000000D+00  .900000000000D-09  .900000000000D-09
      .291750000000D+06  .100000000000D+01                                      
C02 2025 05 28 09 00 00 -.101270000000D-03 -.270299000000D-10  .000000000000D+00
      .100000000000D+01  .339218750000D+03  .116865582200D-07  .122344944800D+01
      .110617838800D-04  .973219866860D-03 -.276151113200D-04  .649348934934D+04
      .291600000000D+06 -.166101381200D-05 -.147494614600D+01 -.144960358700D-05
      .731147408820D-01  .849375000000D+03 -.215435947760D+01 -.105957985000D-07
      .743602402600D-09  .849375000000D+03  .101200000000D+04 -.105957985000D-07
      .200000000000D+01  .000000000000D+00  .170000000000D-08 -.138000000000D-07
      .292020000000D+06  .000000000000D+00                                      
